STARLINK-30556          
1 58031U 23156D   26068.25197209 -.00000564  00000+0 -69054-5 0  9996
2 58031  53.1604  90.4239 0001273 102.6624 257.4520 15.30189725136094
KUIPER-00222            
1 67782U 26030U   26068.67636257  .00055223  00000+0  17317-2 0  9992
2 67782  51.8817 219.7147 0012800  40.1845 320.0084 15.32445377  5087
